NORAD_CAT_ID,OBJECT_NAME,OBJECT_TYPE,EPOCH,MEAN_MOTION,ECCENTRICITY,INCLINATION,RA_OF_ASC_NODE,ARG_OF_PERICENTER,MEAN_ANOMALY,BSTAR,MEAN_MOTION_DOT,MEAN_MOTION_DDOT,TLE_LINE0,TLE_LINE1,TLE_LINE2,SEMIMAJOR_AXIS,PERIOD,APOGEE,PERIGEE,DECAYED
51464.0,STARLINK-3189,PAYLOAD,2024-01-07 22:12:03,15.08834665,0.0001409,53.2157,233.4908,95.9501,264.1652,4.6012e-05,4.44e-06,0.0,0 STARLINK-3189,1 51464U 22010J   24007.92503555  .00000444  00000-0  46012-4 0  9991,2 51464  53.2157 233.4908 0001409  95.9501 264.1652 15.08834665107793,6917.897,95.438,540.736,538.787,0.0
51464.0,STARLINK-3189,PAYLOAD,2024-01-07 23:47:26,15.08835907,0.0001461,53.2155,233.1935,96.6452,263.4706,6.104e-05,6.84e-06,0.0,0 STARLINK-3189,1 51464U 22010J   24007.99127461  .00000684  00000-0  61040-4 0  9990,2 51464  53.2155 233.1935 0001461  96.6452 263.4706 15.08835907107803,6917.893,95.438,540.769,538.747,0.0
51464.0,STARLINK-3189,PAYLOAD,2024-01-08 18:52:05,15.08743218,0.000191,53.2162,229.6234,93.7395,266.3816,0.001483,0.0002333,0.0,0 STARLINK-3189,1 51464U 22010J   24008.78618038  .00023330  00000-0  14830-2 0  9999,2 51464  53.2162 229.6234 0001910  93.7395 266.3816 15.08743218107870,6918.176,95.444,541.363,538.72,0.0
51464.0,STARLINK-3189,PAYLOAD,2024-01-08 22:02:51,15.08798799,0.0001466,53.2163,229.028,96.7284,263.3874,0.000758,0.00011783,0.0,0 STARLINK-3189,1 51464U 22010J   24008.91864702  .00011783  00000-0  75800-3 0  9999,2 51464  53.2163 229.0280 0001466  96.7284 263.3874 15.08798799107945,6918.006,95.44,540.886,538.857,0.0
51464.0,STARLINK-3189,PAYLOAD,2024-01-08 23:38:14,15.08808415,0.0001495,53.2163,228.7311,98.829,261.2871,0.00062176,9.613e-05,0.0,0 STARLINK-3189,1 51464U 22010J   24008.98488484  .00009613  00000-0  62176-3 0  9996,2 51464  53.2163 228.7311 0001495  98.8290 261.2871 15.08808415107905,6917.977,95.44,540.876,538.808,0.0
51464.0,STARLINK-3189,PAYLOAD,2024-01-09 18:42:50,15.0884156,0.0001423,53.216,225.164,87.2009,272.9146,9.9137e-05,1.29e-05,0.0,0 STARLINK-3189,1 51464U 22010J   24009.77975381  .00001290  00000-0  99137-4 0  9992,2 51464  53.2160 225.1640 0001423  87.2009 272.9146 15.08841560108025,6917.876,95.437,540.725,538.756,0.0
51464.0,STARLINK-3189,PAYLOAD,2024-01-09 21:53:36,15.08842698,0.0001441,53.2161,224.5696,84.8135,275.3022,0.00010505,1.384e-05,0.0,0 STARLINK-3189,1 51464U 22010J   24009.91223303  .00001384  00000-0  10505-3 0  9993,2 51464  53.2161 224.5696 0001441  84.8135 275.3022 15.08842698108093,6917.872,95.437,540.734,538.74,0.0
51464.0,STARLINK-3189,PAYLOAD,2024-01-09 23:29:00,15.08843201,0.0001441,53.2162,224.2719,85.1544,274.9612,0.00010767,1.426e-05,0.0,0 STARLINK-3189,1 51464U 22010J   24009.97847258  .00001426  00000-0  10767-3 0  9997,2 51464  53.2162 224.2719 0001441  85.1544 274.9612 15.08843201108108,6917.871,95.437,540.732,538.739,0.0
51464.0,STARLINK-3189,PAYLOAD,2024-01-10 20:09:00,15.08843213,0.000153,53.2166,220.406,82.1498,277.9668,5.5165e-05,5.9e-06,0.0,0 STARLINK-3189,1 51464U 22010J   24010.83959407  .00000590  00000-0  55165-4 0  9997,2 51464  53.2166 220.4060 0001530  82.1498 277.9668 15.08843213108188,6917.871,95.437,540.794,538.677,0.0
51464.0,STARLINK-3189,PAYLOAD,2024-01-11 13:38:15,15.08841026,0.0001477,53.2161,217.1354,83.9474,276.1687,4.3451e-05,4.04e-06,0.0,0 STARLINK-3189,1 51464U 22010J   24011.56823542  .00000404  00000-0  43451-4 0  9997,2 51464  53.2161 217.1354 0001477  83.9474 276.1687 15.08841026108345,6917.877,95.437,540.764,538.72,0.0
51464.0,STARLINK-3189,PAYLOAD,2024-01-11 19:59:48,15.08841189,0.000143,53.2162,215.9466,86.8196,273.296,3.431e-05,2.58e-06,0.0,0 STARLINK-3189,1 51464U 22010J   24011.83319489  .00000258  00000-0  34310-4 0  9998,2 51464  53.2162 215.9466 0001430  86.8196 273.2960 15.08841189108384,6917.877,95.437,540.731,538.752,0.0
51464.0,STARLINK-3189,PAYLOAD,2024-01-12 13:29:02,15.08839755,0.0001401,53.216,212.6757,89.852,270.2632,8.0773e-05,9.98e-06,0.0,0 STARLINK-3189,1 51464U 22010J   24012.56183483  .00000998  00000-0  80773-4 0  9997,2 51464  53.2160 212.6757 0001401  89.8520 270.2632 15.08839755108492,6917.881,95.438,540.715,538.777,0.0
51464.0,STARLINK-3189,PAYLOAD,2024-01-12 19:50:34,15.08840471,0.0001395,53.2162,211.4861,106.8402,253.2743,7.9278e-05,9.74e-06,0.0,0 STARLINK-3189,1 51464U 22010J   24012.82679356  .00000974  00000-0  79278-4 0  9997,2 51464  53.2162 211.4861 0001395 106.8402 253.2743 15.08840471108534,6917.879,95.438,540.709,538.779,0.0
51464.0,STARLINK-3189,PAYLOAD,2024-01-13 19:41:22,15.08839211,0.0001244,53.2154,207.0248,91.8268,268.2867,6.1427e-05,6.9e-06,0.0,0 STARLINK-3189,1 51464U 22010J   24013.82039694  .00000690  00000-0  61427-4 0  9995,2 51464  53.2154 207.0248 0001244  91.8268 268.2867 15.08839211108635,6917.883,95.438,540.608,538.887,0.0
51464.0,STARLINK-3189,PAYLOAD,2024-01-14 13:10:36,15.08841667,0.0001231,53.2153,203.7536,92.7608,267.3525,7.1385e-05,8.48e-06,0.0,0 STARLINK-3189,1 51464U 22010J   24014.54903572  .00000848  00000-0  71385-4 0  9999,2 51464  53.2153 203.7536 0001231  92.7608 267.3525 15.08841667108797,6917.875,95.437,540.592,538.889,0.0
51464.0,STARLINK-3189,PAYLOAD,2024-01-14 19:32:08,15.08845093,0.0001225,53.2153,202.5639,90.5287,269.5846,9.2761e-05,1.189e-05,0.0,0 STARLINK-3189,1 51464U 22010J   24014.81399267  .00001189  00000-0  92761-4 0  9999,2 51464  53.2153 202.5639 0001225  90.5287 269.5846 15.08845093108832,6917.865,95.437,540.577,538.882,0.0
51464.0,STARLINK-3189,PAYLOAD,2024-01-15 13:01:23,15.08846046,0.000122,53.2154,199.2928,87.1548,272.9584,0.00012115,1.641e-05,0.0,0 STARLINK-3189,1 51464U 22010J   24015.54262989  .00001641  00000-0  12115-3 0  9997,2 51464  53.2154 199.2928 0001220  87.1548 272.9584 15.08846046108941,6917.862,95.437,540.571,538.883,0.0
51464.0,STARLINK-3189,PAYLOAD,2024-01-15 17:47:33,15.08837736,0.0001238,53.2153,198.4007,87.8464,272.267,5.2224e-05,5.43e-06,0.0,0 STARLINK-3189,1 51464U 22010J   24015.74135910  .00000543  00000-0  52224-4 0  9998,2 51464  53.2153 198.4007 0001238  87.8464 272.2670 15.08837736108925,6917.887,95.438,540.609,538.896,0.0
51464.0,STARLINK-3189,PAYLOAD,2024-01-15 19:22:56,15.08838459,0.000124,53.2154,198.1035,84.9274,275.186,5.4311e-05,5.77e-06,0.0,0 STARLINK-3189,1 51464U 22010J   24015.80759856  .00000577  00000-0  54311-4 0  9992,2 51464  53.2154 198.1035 0001240  84.9274 275.1860 15.08838459108986,6917.885,95.438,540.608,538.892,0.0
51464.0,STARLINK-3189,PAYLOAD,2024-01-16 11:16:48,15.08838218,0.0001248,53.2153,195.1295,84.2793,275.8342,3.5036e-05,2.7e-06,0.0,0 STARLINK-3189,1 51464U 22010J   24016.47000035  .00000270  00000-0  35036-4 0  9997,2 51464  53.2153 195.1295 0001248  84.2793 275.8342 15.08838218109084,6917.886,95.438,540.614,538.887,0.0
51464.0,STARLINK-3189,PAYLOAD,2024-01-16 19:13:43,15.08840573,0.0001233,53.2155,193.6431,80.4507,279.6624,1.557e-05,-4e-07,0.0,0 STARLINK-3189,1 51464U 22010J   24016.80119926 -.00000040  00000-0  15570-4 0  9991,2 51464  53.2155 193.6431 0001233  80.4507 279.6624 15.08840573109088,6917.879,95.438,540.597,538.891,0.0
51464.0,STARLINK-3189,PAYLOAD,2024-01-16 22:24:29,15.08842502,0.0001234,53.2156,193.048,82.5169,277.5963,2.9577e-05,1.83e-06,0.0,0 STARLINK-3189,1 51464U 22010J   24016.93367723  .00000183  00000-0  29577-4 0  9994,2 51464  53.2156 193.0480 0001234  82.5169 277.5963 15.08842502109150,6917.873,95.437,540.591,538.884,0.0
51464.0,STARLINK-3189,PAYLOAD,2024-01-17 19:04:31,15.08827548,0.0001014,53.217,189.1792,130.721,229.387,-8.4648e-05,-1.634e-05,0.0,0 STARLINK-3189,1 51464U 22010J   24017.79481278 -.00001634  00000-0 -84648-4 0  9995,2 51464  53.2170 189.1792 0001014 130.7210 229.3870 15.08827548109231,6917.918,95.438,540.485,539.082,0.0
51464.0,STARLINK-3189,PAYLOAD,2024-01-18 10:58:23,15.08826485,9.74e-05,53.2165,186.2075,102.5103,257.5998,-5.2488e-05,-1.123e-05,0.0,0 STARLINK-3189,1 51464U 22010J   24018.45722045 -.00001123  00000-0 -52488-4 0  9999,2 51464  53.2165 186.2075 0000974 102.5103 257.5998 15.08826485109388,6917.922,95.438,540.461,539.113,0.0
51464.0,STARLINK-3189,PAYLOAD,2024-01-18 17:19:56,15.08832787,0.0001603,53.217,185.0221,62.5734,297.5421,5.4263e-05,5.76e-06,0.0,0 STARLINK-3189,1 51464U 22010J   24018.72217761  .00000576  00000-0  54263-4 0  9995,2 51464  53.2170 185.0221 0001603  62.5734 297.5421 15.08832787109375,6917.902,95.438,540.876,538.658,0.0
51464.0,STARLINK-3189,PAYLOAD,2024-01-19 10:49:11,15.08793179,0.0001332,53.2159,181.7491,96.5984,263.516,0.00099672,0.0001559,0.0,0 STARLINK-3189,1 51464U 22010J   24019.45082757  .00015590  00000-0  99672-3 0  9995,2 51464  53.2159 181.7491 0001332  96.5984 263.5160 15.08793179109483,6918.024,95.441,540.81,538.967,0.0
51464.0,STARLINK-3189,PAYLOAD,2024-01-19 13:59:55,15.08834189,0.000138,53.2169,181.1571,64.4318,295.6816,0.00046677,7.147e-05,0.0,0 STARLINK-3189,1 51464U 22010J   24019.58328516  .00007147  00000-0  46677-3 0  9991,2 51464  53.2169 181.1571 0001380  64.4318 295.6816 15.08834189109554,6917.898,95.438,540.718,538.808,0.0
51464.0,STARLINK-3189,PAYLOAD,2024-01-19 17:10:41,15.08849628,0.0001415,53.2163,180.5611,66.9814,293.1328,0.00041162,6.271e-05,0.0,0 STARLINK-3189,1 51464U 22010J   24019.71576223  .00006271  00000-0  41162-3 0  9997,2 51464  53.2163 180.5611 0001415  66.9814 293.1328 15.08849628109525,6917.851,95.437,540.695,538.737,0.0
51464.0,STARLINK-3189,PAYLOAD,2024-01-19 20:21:28,15.08859894,0.0001351,53.215,179.9649,69.8446,290.2692,0.00062765,9.721e-05,0.0,0 STARLINK-3189,1 51464U 22010J   24019.84824595  .00009721  00000-0  62765-3 0  9994,2 51464  53.2150 179.9649 0001351  69.8446 290.2692 15.08859894109591,6917.82,95.436,540.619,538.75,0.0
51464.0,STARLINK-3189,PAYLOAD,2024-01-20 13:50:42,15.08852357,0.0001619,53.2147,176.6869,116.5365,243.5793,6.4613e-05,7.41e-06,0.0,0 STARLINK-3189,1 51464U 22010J   24020.57688347  .00000741  00000-0  64613-4 0  9997,2 51464  53.2147 176.6869 0001619 116.5365 243.5793 15.08852357109705,6917.843,95.437,540.828,538.588,0.0
